[{"OBJECT_NAME":"STARLINK-36450","OBJECT_ID":"2026-002N","EPOCH":"2026-03-09T10:05:21.811776","MEAN_MOTION":15.27591291,"ECCENTRICITY":8.244e-5,"INCLINATION":43.0057,"RA_OF_ASC_NODE":327.1425,"ARG_OF_PERICENTER":300.9814,"MEAN_ANOMALY":59.0957,"EPHEMERIS_TYPE":0,"CLASSIFICATION_TYPE":"U","NORAD_CAT_ID":67317,"ELEMENT_SET_NO":999,"REV_AT_EPOCH":1119,"BSTAR":0.0011516158,"MEAN_MOTION_DOT":0.00031574,"MEAN_MOTION_DDOT":0},{"OBJECT_NAME":"FREGAT DEB","OBJECT_ID":"2011-037BV","EPOCH":"2026-03-08T05:45:34.376544","MEAN_MOTION":11.841002,"ECCENTRICITY":0.16352432,"INCLINATION":51.4346,"RA_OF_ASC_NODE":250.7968,"ARG_OF_PERICENTER":264.1792,"MEAN_ANOMALY":77.1145,"EPHEMERIS_TYPE":0,"CLASSIFICATION_TYPE":"U","NORAD_CAT_ID":45835,"ELEMENT_SET_NO":999,"REV_AT_EPOCH":24132,"BSTAR":0.0027919036,"MEAN_MOTION_DOT":0.00015279,"MEAN_MOTION_DDOT":0}]
